satname,norad_id,inclination_deg,eccentricity,mean_motion_rev_per_day,perigee_km,apogee_km,l1,l2
STARLINK-1452,45669,53.0332,0.0006614,15.4092402,438.86917259365873,447.89267650425245,1 45669U 20035N   26042.57432583  .00048477  00000+0  11624-2 0  9996,2 45669  53.0332 145.7450 0006614 304.8417  55.1964 15.40924020315330
STARLINK-1453,45670,53.0504,0.0005819,15.47244436,420.83259059418924,428.74983845025054,1 45670U 20035P   26042.52273769  .00116373  00000+0  22226-2 0  9993,2 45670  53.0504 138.8381 0005819 290.7837  69.2547 15.47244436315318
STARLINK-1454,45671,53.0518,0.0005331,15.45984908,424.8570408795167,432.11426195045533,1 45671U 20035Q   26042.58335648  .00036147  00000+0  73452-3 0  9993,2 45671  53.0518 177.8031 0005331 314.2486 267.3642 15.45984908  5855
STARLINK-1456,45673,53.0514,0.0003105,15.44379571,431.0867695764982,435.3166109031372,1 45673U 20035S   26042.60064781  .00131537  00000+0  27657-2 0  9999,2 45673  53.0514 171.1460 0003105 234.4027 125.6690 15.44379571314986
STARLINK-1457,45674,53.0469,0.0007539,15.71127994,350.59542791740296,360.74866519780335,1 45674U 20035T   26042.58335648  .00197874  00000+0  15058-2 0  9998,2 45674  53.0469 152.4882 0007539 335.7214 354.5642 15.71127994  5981
STARLINK-1458,45675,53.0534,0.0002635,15.39380014,446.1428355242906,449.74017889759034,1 45675U 20035U   26042.61083199  .00024274  00000+0  61967-3 0  9998,2 45675  53.0534 178.9960 0002635 357.1621   2.9367 15.39380014314830
STARLINK-1460,45676,53.0569,0.0001294,15.06403935,546.3033592134643,548.0956362990837,1 45676U 20035V   26042.62692002  .00002395  00000+0  17959-3 0  9991,2 45676  53.0569 183.6195 0001294  86.5649 273.5488 15.06403935314769
STARLINK-1392,45677,53.0569,0.0001473,15.06398546,546.1959097434492,548.2361187414454,1 45677U 20035W   26042.57163592  .00001250  00000+0  10279-3 0  9990,2 45677  53.0569 183.8669 0001473 101.4646 258.6509 15.06398546314793
STARLINK-1394,45679,53.0516,0.000372,15.42988582,434.75930466275713,439.82998580681306,1 45679U 20035Y   26042.58335648  .00026750  00000+0  60492-3 0  9990,2 45679  53.0516 161.2301 0003720 210.1287 184.8388 15.42988582  5939
STARLINK-1402,45685,53.0503,0.0004729,15.40963557,440.0384021422733,446.4900834377049,1 45685U 20035AE  26042.54781214  .00085480  00000+0  20304-2 0  9999,2 45685  53.0503 147.4761 0004729 187.7052 172.3880 15.40963557315315
STARLINK-1404,45686,53.155,0.0001229,15.29365485,476.8653304030404,478.5504970828397,1 45686U 20035AF  26042.56927422  .00011226  00000+0  40066-3 0  9990,2 45686  53.1550 171.0170 0001229  80.0538 280.0601 15.29365485314974
STARLINK-1413,45689,53.1591,0.0001116,15.30198027,474.45612569963214,475.98579519640407,1 45689U 20035AJ  26042.57626911  .00004552  00000+0  16574-3 0  9994,2 45689  53.1591 170.8704 0001116  80.0547 280.0580 15.30198027314892
STARLINK-1417,45693,53.0505,0.0005138,15.11027044,529.5155583825926,536.6175111349112,1 45693U 20035AN  26042.61591022  .00034181  00000+0  20292-2 0  9990,2 45693  53.0505 172.3394 0005138 159.5293 200.5905 15.11027044314955
STARLINK-1420,45695,53.0544,0.0002157,15.47762614,421.8056899926496,424.7398181605595,1 45695U 20035AQ  26042.56538397  .00027409  00000+0  52668-3 0  9990,2 45695  53.0544 147.7799 0002157  26.2868 333.8248 15.47762614315309
STARLINK-1422,45696,53.1589,0.0001331,15.30011993,474.8642260300958,476.6887377989815,1 45696U 20035AR  26042.58366171  .00119164  00000+0  39946-2 0  9995,2 45696  53.1589 170.8409 0001331  94.3152 265.8000 15.30011993314971
STARLINK-1351,45697,53.0536,0.0001402,15.49103383,418.3947083548883,420.3007230691737,1 45697U 20035AS  26042.58335648  .00062259  00000+0  11266-2 0  9998,2 45697  53.0536 146.9235 0001402  67.0315 153.4793 15.49103383  5873
STARLINK-1398,45699,53.041,0.000532,15.80322453,325.95956948515413,333.0965250954705,1 45699U 20035AU  26042.58335648  .00258461  00000+0  13059-2 0  9994,2 45699  53.0410  71.6536 0005320   7.2425  34.4727 15.80322453  5865
STARLINK-1400,45700,53.0526,0.000447,15.45854611,425.82539251105027,431.910855091729,1 45700U 20035AV  26042.60500283  .00077231  00000+0  15584-2 0  9998,2 45700  53.0526 147.7452 0004470 357.0764   3.0215 15.45854611315309
STARLINK-1403,45701,53.0561,0.0001374,15.06392596,546.2827042150693,548.1857962346312,1 45701U 20035AW  26042.53385794  .00000043  00000+0  21784-4 0  9997,2 45701  53.0561 154.0380 0001374  89.8273 270.2874 15.06392596315209
STARLINK-1407,45703,53.036,0.0012329,15.55508708,392.316684588297,409.03187744502793,1 45703U 20035AY  26041.91667824  .00138183  00000+0  19539-2 0  9997,2 45703  53.0360  85.6665 0012329   7.5901 250.4284 15.55508708  5850
STARLINK-1411,45706,53.0459,0.0004382,15.57081431,393.14043275387667,399.0773818670441,1 45706U 20035BB  26041.51830108  .00073099  00000+0  98885-3 0  9999,2 45706  53.0459 113.6741 0004382  17.7042 342.4121 15.57081431315686
STARLINK-1423,45710,53.0535,0.0003399,15.4783312,420.7544809457986,425.3779388879002,1 45710U 20035BF  26042.54399808  .00093699  00000+0  17607-2 0  9995,2 45710  53.0535 147.4889 0003399  11.9384 348.1703 15.47833120315291
STARLINK-1433,45711,53.0524,0.0004006,15.49868458,414.38835460204336,419.83270692369115,1 45711U 20035BG  26042.60375592  .00084834  00000+0  14868-2 0  9994,2 45711  53.0524 146.6369 0004006   5.2092 354.8956 15.49868458315313
STARLINK-1434,45712,53.0506,0.0002303,15.24203821,491.594783094537,494.75971043659683,1 45712U 20035BH  26042.55606703  .00048857  00000+0  19795-2 0  9999,2 45712  53.0506 140.8260 0002303 353.9797   6.1172 15.24203821315400
STARLINK-1465,45731,53.0547,0.00041,15.45943517,425.81637918104025,431.3979093793496,1 45731U 20038B   26042.58335648  .00048660  00000+0  98578-3 0  9992,2 45731  53.0547 348.0103 0004100 110.6668  28.6400 15.45943517  5850
STARLINK-1471,45735,53.0466,0.0004119,15.47352564,421.67229241513724,427.27628359419487,1 45735U 20038F   26042.04783772  .00024313  00000+0  47493-3 0  9991,2 45735  53.0466 269.5048 0004119 129.1918 230.9455 15.47352564313401
STARLINK-1474,45738,53.0202,0.0006294,16.05026304,256.3442974949876,264.7010422874473,1 45738U 20038J   26042.92997329  .00881817  41166-3  12537-2 0  9998,2 45738  53.0202 194.7358 0006294 302.9814  57.0612 16.05026304314518
STARLINK-1480,45741,53.0544,0.0010791,15.44088487,426.7066508656053,441.40872944590046,1 45741U 20038M   26041.25591240  .00095566  00000+0  20376-2 0  9995,2 45741  53.0544 348.0925 0010791  84.5351 275.6885 15.44088487312230
STARLINK-1500,45744,53.0386,0.0004232,15.33245356,463.24074215574274,469.03373587164333,1 45744U 20038Q   26041.18282602  .00030801  00000+0  95280-3 0  9997,2 45744  53.0386 321.6203 0004232 132.5397 227.5962 15.33245356312599
STARLINK-1504,45746,53.0238,0.0004265,15.5131173,409.998836036988,415.7915865132063,1 45746U 20038S   26041.90121196  .00029588  00000+0  50118-3 0  9990,2 45746  53.0238 271.2342 0004265 116.2086 243.9361 15.51311730313351
STARLINK-1506,45747,53.076,0.0004693,15.25414801,486.31714753019696,492.76314930169974,1 45747U 20038T   26042.19565991  .00011452  00000+0  45997-3 0  9998,2 45747  53.0760 324.8253 0004693 145.2644 214.8661 15.25414801312640
STARLINK-1464,45751,53.0562,0.0004341,15.41211983,439.5703490343949,445.4920531665912,1 45751U 20038X   26042.19736684  .00069426  00000+0  16409-2 0  9991,2 45751  53.0562 330.3198 0004341 117.3024 242.8423 15.41211983312569
STARLINK-1477,45754,53.0535,0.0001908,15.12864133,526.1529072021322,528.7880870230301,1 45754U 20038AA  26042.21949597  .00021437  00000+0  12181-2 0  9999,2 45754  53.0535 333.1173 0001908  57.8996 302.2181 15.12864133312525
STARLINK-1478,45755,53.0576,0.0007435,15.50062012,411.49299788930875,421.59668979109847,1 45755U 20038AB  26042.17251584  .00098380  00000+0  17072-2 0  9992,2 45755  53.0576 325.5732 0007435 108.5872 251.5944 15.50062012312616
STARLINK-1484,45756,53.0059,0.0003066,15.86788153,309.24348195267703,313.34544132495466,1 45756U 20038AC  26042.58335648  .00210276  00000+0  78784-3 0  9990,2 45756  53.0059 190.3559 0003066 292.6694 222.2433 15.86788153  6046
STARLINK-1493,45759,53.0552,0.0002465,15.43417347,434.35266532089736,437.7120508144253,1 45759U 20038AF  26042.39968423  .00090395  00000+0  19769-2 0  9990,2 45759  53.0552 329.9170 0002465 120.5617 239.5632 15.43417347312579
STARLINK-1494,45760,53.0498,0.0002003,15.68748196,361.13032574357567,363.8306171026279,1 45760U 20038AG  26042.09683408  .00073266  00000+0  62859-3 0  9993,2 45760  53.0498 283.3080 0002003 175.3527 184.7508 15.68748196313210
STARLINK-1502,45764,53.0541,0.0001545,15.39196818,447.4284125835675,449.53783820231456,1 45764U 20038AL  26042.58335648  .00686496  00000+0  16116-1 0  9999,2 45764  53.0541 330.3132 0001545  95.9599 101.3630 15.39196818  5800
STARLINK-1470,45772,53.0541,0.0002468,15.25398534,487.89401861533406,491.2839281557972,1 45772U 20038AU  26041.89908425  .00025120  00000+0  99174-3 0  9998,2 45772  53.0541 298.4086 0002468 109.6875 250.4389 15.25398534312987
STARLINK-1482,45773,53.1569,0.0001164,15.29341488,476.9816018749134,478.5776592665097,1 45773U 20038AV  26042.58335648  .00070186  00000+0  24228-2 0  9996,2 45773  53.1569 312.2332 0001164  97.6151  82.0454 15.29341488  5793
STARLINK-1496,45780,53.0559,0.0008831,15.43678938,429.24560623296384,441.2794324640381,1 45780U 20038BC  26042.26078246  .00055493  00000+0  12105-2 0  9992,2 45780  53.0559 303.8074 0008831 111.7614 248.4332 15.43678938312926
STARLINK-1497,45781,53.0111,0.0006109,16.3528642,174.36601726959907,182.3767592183558,1 45781U 20038BD  26042.88085545  .06652040  12250-4  82857-3 0  9995,2 45781  53.0111 206.1378 0006109 282.4286  77.6074 16.35286420314357
STARLINK-1513,45786,53.156,0.0001334,15.29338087,476.8752142306721,478.70437549954204,1 45786U 20038BJ  26042.58335648  .00063088  00000+0  21813-2 0  9990,2 45786  53.1560 312.3663 0001334  98.4322  28.5173 15.29338087  5798
